STARLINK-1709           
1 46561U 20070AF  24189.90268674  .00011056  00000+0  75981-3 0  9992
2 46561  53.0548  19.0879 0001386  96.4254 263.6893 15.06406729207816
STARLINK-1714           
1 46562U 20070AG  24189.74748311  .00001806  00000+0  14011-3 0  9995
2 46562  53.0560  15.2141 0001287  82.7923 277.3212 15.06406425207542
STARLINK-1730           
1 46563U 20070AH  24189.75110717  .00003993  00000+0  28673-3 0  9998
2 46563  53.0553  14.7343 0001254  87.9027 272.2105 15.06408649207869
STARLINK-1733           
1 46564U 20070AJ  24188.81120690  .00001261  00000+0  10351-3 0  9996
2 46564  53.0552  19.0318 0001262 101.0489 259.0642 15.06403229207721
STARLINK-1735           
1 46565U 20070AK  24189.77691355  .00001436  00000+0  11527-3 0  9994
2 46565  53.0561  14.6219 0001677  84.0764 276.0416 15.06407616207552
STARLINK-1740           
1 46566U 20070AL  24189.82851635  .00001515  00000+0  12057-3 0  9997
2 46566  53.0559  14.3887 0001455  91.7443 268.3713 15.06408556207548
STARLINK-1741           
1 46567U 20070AM  24189.79165295  .00002982  00000+0  21892-3 0  9990
2 46567  53.0556  14.5539 0001413  91.3177 268.7974 15.06415209207867
STARLINK-1748           
1 46570U 20070AQ  24189.41707514  .00051957  00000+0  97887-3 0  9992
2 46570  53.0220 281.4226 0000612  99.6374 260.4702 15.48024475209145
STARLINK-1531           
1 46572U 20070AS  24189.77781474  .00005770  00000+0  40584-3 0  9994
2 46572  53.0552  34.6051 0001658  90.7682 269.3496 15.06411713207598
STARLINK-1660           
1 46574U 20070AU  24189.80778309  .00009037  00000+0  62457-3 0  9996
2 46574  53.0551  19.4814 0001439  91.1951 268.9203 15.06414833207797
STARLINK-1675           
1 46575U 20070AV  24189.73083423  .00001730  00000+0  13497-3 0  9997
2 46575  53.0557 354.8281 0001173 104.4091 255.7028 15.06411409208130
STARLINK-1677           
1 46576U 20070AW  24189.80041744  .00011513  00000+0  79035-3 0  9996
2 46576  53.0545  19.5147 0001397  83.6209 276.4939 15.06407629207792
STARLINK-1682           
1 46577U 20070AX  24189.76355696  .00005521  00000+0  38924-3 0  9990
2 46577  53.0551  19.6799 0001435  86.4433 273.6720 15.06400872207786
STARLINK-1683           
1 46578U 20070AY  24189.81102359  .00006806  00000+0  47527-3 0  9999
2 46578  53.0558   4.5159 0001668  96.8625 263.2554 15.06405569207703
STARLINK-1705           
1 46579U 20070AZ  24189.81516160  .00005202  00000+0  36780-3 0  9997
2 46579  53.0572  19.4490 0001485  93.6582 266.4577 15.06405189207772
STARLINK-1708           
1 46580U 20070BA  24189.79304194  .00004527  00000+0  32253-3 0  9998
2 46580  53.0554  19.5483 0001318  91.3023 268.8117 15.06408876207803
STARLINK-1712           
1 46581U 20070BB  24189.82483418  .00010433  00000+0  71811-3 0  9996
2 46581  53.0549  14.4052 0001502  85.8258 274.2903 15.06406778207866
STARLINK-1728           
1 46582U 20070BC  24189.81008602  .00007620  00000+0  52973-3 0  9996
2 46582  53.0555  14.4726 0001317  88.1017 272.0123 15.06409198207864
STARLINK-1729           
1 46583U 20070BD  24189.85985144  .00012214  00000+0  83722-3 0  9997
2 46583  53.0553  34.2486 0001447  95.3265 264.7889 15.06409766207605
STARLINK-1732           
1 46584U 20070BE  24189.75017428  .00000715  00000+0  66897-4 0  9996
2 46584  53.0546  14.7677 0001336  83.9413 276.1728 15.06400400207546
STARLINK-1736           
1 46585U 20070BF  24189.79907206  .00005937  00000+0  41702-3 0  9991
2 46585  53.0550  14.8684 0001544  89.8786 270.2380 15.06409535207558
STARLINK-1737           
1 46586U 20070BG  24189.82114849  .00008299  00000+0  57536-3 0  9995
2 46586  53.0543  14.4278 0001222 126.1813 233.9289 15.06402458207545
STARLINK-1746           
1 46588U 20070BJ  24189.73637209  .00007178  00000+0  50017-3 0  9999
2 46588  53.0569  14.8032 0001576  88.9840 271.1329 15.06407609207861
STARLINK-1749           
1 46589U 20070BK  24189.72898411  .00004700  00000+0  33411-3 0  9990
2 46589  53.0557  14.8349 0001355  85.9455 274.1689 15.06407634207853
STARLINK-1755           
1 46591U 20070BM  24189.78428881  .00012590  00000+0  86232-3 0  9994
2 46591  53.0555  14.5881 0001610  84.7750 275.3423 15.06410546207867
STARLINK-1715           
1 46671U 20073B   24190.14461307  .00016456  00000+0  11207-2 0  9992
2 46671  53.0538 103.2135 0001254  86.0379 274.0753 15.06412588205667
STARLINK-1716           
1 46672U 20073C   24189.96259897  .00016272  00000+0  11087-2 0  9992
2 46672  53.0548  98.7876 0001564  93.9019 266.2149 15.06403218205719
STARLINK-1717           
1 46673U 20073D   24189.91667824  .00110917  00000+0  82585-3 0  9994
2 46673  53.0514  73.0398 0001325 199.2185 283.7575 15.71980764206061
STARLINK-1718           
1 46674U 20073E   24189.78935298  .00002318  00000+0  17445-3 0  9991
2 46674  53.0550  99.5686 0001394  87.4772 272.6376 15.06395597205686
STARLINK-1720           
1 46675U 20073F   24189.78567951  .00023083  00000+0  15639-2 0  9993
2 46675  53.0542  99.5822 0001601  87.8278 272.2894 15.06389565205685
