OBJECT_NAME,OBJECT_ID,EPOCH,MEAN_MOTION,ECCENTRICITY,INCLINATION,RA_OF_ASC_NODE,ARG_OF_PERICENTER,MEAN_ANOMALY,EPHEMERIS_TYPE,CLASSIFICATION_TYPE,NORAD_CAT_ID,ELEMENT_SET_NO,REV_AT_EPOCH,BSTAR,MEAN_MOTION_DOT,MEAN_MOTION_DDOT
STARLINK-1709,2020-070AF,2024-07-07T21:39:52.134336,15.06406729,.0001386,53.0548,19.0879,96.4254,263.6893,0,U,46561,999,20781,.75981E-3,.11056E-3,0
STARLINK-1714,2020-070AG,2024-07-07T17:56:22.540704,15.06406425,.0001287,53.0560,15.2141,82.7923,277.3212,0,U,46562,999,20754,.14011E-3,.1806E-4,0
STARLINK-1730,2020-070AH,2024-07-07T18:01:35.659488,15.06408649,.0001254,53.0553,14.7343,87.9027,272.2105,0,U,46563,999,20786,.28673E-3,.3993E-4,0
STARLINK-1733,2020-070AJ,2024-07-06T19:28:08.276160,15.06403229,.0001262,53.0552,19.0318,101.0489,259.0642,0,U,46564,999,20772,.10351E-3,.1261E-4,0
STARLINK-1735,2020-070AK,2024-07-07T18:38:45.330720,15.06407616,.0001677,53.0561,14.6219,84.0764,276.0416,0,U,46565,999,20755,.11527E-3,.1436E-4,0
STARLINK-1740,2020-070AL,2024-07-07T19:53:03.812640,15.06408556,.0001455,53.0559,14.3887,91.7443,268.3713,0,U,46566,999,20754,.12057E-3,.1515E-4,0
STARLINK-1741,2020-070AM,2024-07-07T18:59:58.814880,15.06415209,.0001413,53.0556,14.5539,91.3177,268.7974,0,U,46567,999,20786,.21892E-3,.2982E-4,0
STARLINK-1748,2020-070AQ,2024-07-07T10:00:35.292096,15.48024475,.0000612,53.0220,281.4226,99.6374,260.4702,0,U,46570,999,20914,.97887E-3,.51957E-3,0
STARLINK-1531,2020-070AS,2024-07-07T18:40:03.193536,15.06411713,.0001658,53.0552,34.6051,90.7682,269.3496,0,U,46572,999,20759,.40584E-3,.577E-4,0
STARLINK-1660,2020-070AU,2024-07-07T19:23:12.458976,15.06414833,.0001439,53.0551,19.4814,91.1951,268.9203,0,U,46574,999,20779,.62457E-3,.9037E-4,0
STARLINK-1675,2020-070AV,2024-07-07T17:32:24.077472,15.06411409,.0001173,53.0557,354.8281,104.4091,255.7028,0,U,46575,999,20813,.13497E-3,.173E-4,0
STARLINK-1677,2020-070AW,2024-07-07T19:12:36.066816,15.06407629,.0001397,53.0545,19.5147,83.6209,276.4939,0,U,46576,999,20779,.79035E-3,.11513E-3,0
STARLINK-1682,2020-070AX,2024-07-07T18:19:31.321344,15.06400872,.0001435,53.0551,19.6799,86.4433,273.6720,0,U,46577,999,20778,.38924E-3,.5521E-4,0
STARLINK-1683,2020-070AY,2024-07-07T19:27:52.438176,15.06405569,.0001668,53.0558,4.5159,96.8625,263.2554,0,U,46578,999,20770,.47527E-3,.6806E-4,0
STARLINK-1705,2020-070AZ,2024-07-07T19:33:49.962240,15.06405189,.0001485,53.0572,19.4490,93.6582,266.4577,0,U,46579,999,20777,.3678E-3,.5202E-4,0
STARLINK-1708,2020-070BA,2024-07-07T19:01:58.823616,15.06408876,.0001318,53.0554,19.5483,91.3023,268.8117,0,U,46580,999,20780,.32253E-3,.4527E-4,0
STARLINK-1712,2020-070BB,2024-07-07T19:47:45.673152,15.06406778,.0001502,53.0549,14.4052,85.8258,274.2903,0,U,46581,999,20786,.71811E-3,.10433E-3,0
STARLINK-1728,2020-070BC,2024-07-07T19:26:31.432128,15.06409198,.0001317,53.0555,14.4726,88.1017,272.0123,0,U,46582,999,20786,.52973E-3,.762E-4,0
STARLINK-1729,2020-070BD,2024-07-07T20:38:11.164416,15.06409766,.0001447,53.0553,34.2486,95.3265,264.7889,0,U,46583,999,20760,.83722E-3,.12214E-3,0
STARLINK-1732,2020-070BE,2024-07-07T18:00:15.057792,15.06400400,.0001336,53.0546,14.7677,83.9413,276.1728,0,U,46584,999,20754,.66897E-4,.715E-5,0
STARLINK-1736,2020-070BF,2024-07-07T19:10:39.825984,15.06409535,.0001544,53.0550,14.8684,89.8786,270.2380,0,U,46585,999,20755,.41702E-3,.5937E-4,0
STARLINK-1737,2020-070BG,2024-07-07T19:42:27.229536,15.06402458,.0001222,53.0543,14.4278,126.1813,233.9289,0,U,46586,999,20754,.57536E-3,.8299E-4,0
STARLINK-1746,2020-070BJ,2024-07-07T17:40:22.548576,15.06407609,.0001576,53.0569,14.8032,88.9840,271.1329,0,U,46588,999,20786,.50017E-3,.7178E-4,0
STARLINK-1749,2020-070BK,2024-07-07T17:29:44.227104,15.06407634,.0001355,53.0557,14.8349,85.9455,274.1689,0,U,46589,999,20785,.33411E-3,.47E-4,0
STARLINK-1755,2020-070BM,2024-07-07T18:49:22.553184,15.06410546,.000161,53.0555,14.5881,84.7750,275.3423,0,U,46591,999,20786,.86232E-3,.1259E-3,0
STARLINK-1715,2020-073B,2024-07-08T03:28:14.569248,15.06412588,.0001254,53.0538,103.2135,86.0379,274.0753,0,U,46671,999,20566,.11207E-2,.16456E-3,0
STARLINK-1716,2020-073C,2024-07-07T23:06:08.551008,15.06403218,.0001564,53.0548,98.7876,93.9019,266.2149,0,U,46672,999,20571,.11087E-2,.16272E-3,0
STARLINK-1717,2020-073D,2024-07-07T22:00:00.999936,15.71980764,.0001325,53.0514,73.0398,199.2185,283.7575,0,U,46673,999,20606,.82585E-3,.110917E-2,0
STARLINK-1718,2020-073E,2024-07-07T18:56:40.097472,15.06395597,.0001394,53.0550,99.5686,87.4772,272.6376,0,U,46674,999,20568,.17445E-3,.2318E-4,0
STARLINK-1720,2020-073F,2024-07-07T18:51:22.709664,15.06389565,.0001601,53.0542,99.5822,87.8278,272.2894,0,U,46675,999,20568,.15639E-2,.23083E-3,0
